{"type":"FeatureCollection","features":[{"type":"Feature","geometry":{"type":"Point","coordinates":[70.049,22.352]},"properties":{"id":"site0","name":"Jamnagar Refinery Complex","site_type":"refinery","source":"osm","tags":{"landuse":"industrial","name":"Jamnagar Refinery Complex"}}},{"type":"Feature","geometry":{"type":"Point","coordinates":[86.616,20.284]},"properties":{"id":"site1","name":"Paradip Refinery","site_type":"refinery","source":"osm","tags":{"landuse":"industrial","name":"Paradip Refinery"}}},{"type":"Feature","geometry":{"type":"Point","coordinates":[77.7,27.472]},"properties":{"id":"site2","name":"Mathura Refinery","site_type":"refinery","source":"osm","tags":{"landuse":"industrial","name":"Mathura Refinery"}}},{"type":"Feature","geometry":{"type":"Point","coordinates":[76.93,29.425]},"properties":{"id":"site3","name":"Panipat Refinery & Petrochemical","site_type":"refinery","source":"osm","tags":{"landuse":"industrial","name":"Panipat Refinery & Petrochemical"}}},{"type":"Feature","geometry":{"type":"Point","coordinates":[74.921,30.258]},"properties":{"id":"site4","name":"Guru Gobind Singh Refinery, Bathinda","site_type":"refinery","source":"osm","tags":{"landuse":"industrial","name":"Guru Gobind Singh Refinery, Bathinda"}}},{"type":"Feature","geometry":{"type":"Point","coordinates":[74.83,12.972]},"properties":{"id":"site5","name":"MRPL Mangalore","site_type":"refinery","source":"osm","tags":{"landuse":"industrial","name":"MRPL Mangalore"}}},{"type":"Feature","geometry":{"type":"Point","coordinates":[72.65,21.105]},"properties":{"id":"site6","name":"Hazira Petrochemical Complex","site_type":"chemical_plant","source":"osm","tags":{"landuse":"industrial","name":"Hazira Petrochemical Complex"}}},{"type":"Feature","geometry":{"type":"Point","coordinates":[86.2,22.79]},"properties":{"id":"site7","name":"Tata Steel Jamshedpur","site_type":"steel_plant","source":"osm","tags":{"landuse":"industrial","name":"Tata Steel Jamshedpur"}}},{"type":"Feature","geometry":{"type":"Point","coordinates":[86.15,23.672]},"properties":{"id":"site8","name":"Bokaro Steel Plant","site_type":"steel_plant","source":"osm","tags":{"landuse":"industrial","name":"Bokaro Steel Plant"}}},{"type":"Feature","geometry":{"type":"Point","coordinates":[81.38,21.19]},"properties":{"id":"site9","name":"Bhilai Steel Plant","site_type":"steel_plant","source":"osm","tags":{"landuse":"industrial","name":"Bhilai Steel Plant"}}},{"type":"Feature","geometry":{"type":"Point","coordinates":[84.86,22.22]},"properties":{"id":"site10","name":"Rourkela Steel Plant","site_type":"steel_plant","source":"osm","tags":{"landuse":"industrial","name":"Rourkela Steel Plant"}}},{"type":"Feature","geometry":{"type":"Point","coordinates":[83.17,17.63]},"properties":{"id":"site11","name":"Visakhapatnam Steel Plant","site_type":"steel_plant","source":"osm","tags":{"landuse":"industrial","name":"Visakhapatnam Steel Plant"}}},{"type":"Feature","geometry":{"type":"Point","coordinates":[76.7,15.18]},"properties":{"id":"site12","name":"JSW Vijayanagar Steel","site_type":"steel_plant","source":"osm","tags":{"landuse":"industrial","name":"JSW Vijayanagar Steel"}}},{"type":"Feature","geometry":{"type":"Point","coordinates":[87.27,23.533]},"properties":{"id":"site13","name":"Durgapur Steel Plant","site_type":"steel_plant","source":"osm","tags":{"landuse":"industrial","name":"Durgapur Steel Plant"}}},{"type":"Feature","geometry":{"type":"Point","coordinates":[69.545,22.822]},"properties":{"id":"site14","name":"Mundra Thermal Power","site_type":"power_plant","source":"osm","tags":{"landuse":"industrial","name":"Mundra Thermal Power"}}},{"type":"Feature","geometry":{"type":"Point","coordinates":[82.68,22.36]},"properties":{"id":"site15","name":"Korba Super Thermal Power","site_type":"power_plant","source":"osm","tags":{"landuse":"industrial","name":"Korba Super Thermal Power"}}},{"type":"Feature","geometry":{"type":"Point","coordinates":[82.67,24.1]},"properties":{"id":"site16","name":"Singrauli / Vindhyachal STPS","site_type":"power_plant","source":"osm","tags":{"landuse":"industrial","name":"Singrauli / Vindhyachal STPS"}}},{"type":"Feature","geometry":{"type":"Point","coordinates":[85.088,20.945]},"properties":{"id":"site17","name":"NTPC Talcher Kaniha","site_type":"power_plant","source":"osm","tags":{"landuse":"industrial","name":"NTPC Talcher Kaniha"}}},{"type":"Feature","geometry":{"type":"Point","coordinates":[82.29,22.135]},"properties":{"id":"site18","name":"Sipat Thermal Power","site_type":"power_plant","source":"osm","tags":{"landuse":"industrial","name":"Sipat Thermal Power"}}},{"type":"Feature","geometry":{"type":"Point","coordinates":[79.47,18.755]},"properties":{"id":"site19","name":"Ramagundam STPS","site_type":"power_plant","source":"osm","tags":{"landuse":"industrial","name":"Ramagundam STPS"}}},{"type":"Feature","geometry":{"type":"Point","coordinates":[85.1,20.84]},"properties":{"id":"site20","name":"NALCO Angul Smelter","site_type":"steel_plant","source":"osm","tags":{"landuse":"industrial","name":"NALCO Angul Smelter"}}},{"type":"Feature","geometry":{"type":"Point","coordinates":[84.01,21.8]},"properties":{"id":"site21","name":"Vedanta Jharsuguda Smelter","site_type":"steel_plant","source":"osm","tags":{"landuse":"industrial","name":"Vedanta Jharsuguda Smelter"}}},{"type":"Feature","geometry":{"type":"Point","coordinates":[79.4,19.9]},"properties":{"id":"site22","name":"UltraTech Cement Awarpur","site_type":"cement_plant","source":"osm","tags":{"landuse":"industrial","name":"UltraTech Cement Awarpur"}}},{"type":"Feature","geometry":{"type":"Point","coordinates":[76.99,17.06]},"properties":{"id":"site23","name":"ACC Wadi Cement","site_type":"cement_plant","source":"osm","tags":{"landuse":"industrial","name":"ACC Wadi Cement"}}},{"type":"Feature","geometry":{"type":"Point","coordinates":[74.33,26.05]},"properties":{"id":"site24","name":"Shree Cement Beawar","site_type":"cement_plant","source":"osm","tags":{"landuse":"industrial","name":"Shree Cement Beawar"}}},{"type":"Feature","geometry":{"type":"Point","coordinates":[71.44012965952393,25.989598409547057]},"properties":{"id":"flare0_0","name":"Mangala Oil Field, Barmer \u2013 flare 1","site_type":"gas_flare","source":"osm","tags":{"man_made":"flare","name":"Mangala Oil Field, Barmer"}}},{"type":"Feature","geometry":{"type":"Point","coordinates":[71.4095982277067,25.96032728457713]},"properties":{"id":"flare0_1","name":"Mangala Oil Field, Barmer \u2013 flare 2","site_type":"gas_flare","source":"osm","tags":{"man_made":"flare","name":"Mangala Oil Field, Barmer"}}},{"type":"Feature","geometry":{"type":"Point","coordinates":[71.44571504434964,25.975127759961612]},"properties":{"id":"flare0_2","name":"Mangala Oil Field, Barmer \u2013 flare 3","site_type":"gas_flare","source":"osm","tags":{"man_made":"flare","name":"Mangala Oil Field, Barmer"}}},{"type":"Feature","geometry":{"type":"Point","coordinates":[71.42617492112883,25.97042603740312]},"properties":{"id":"flare0_3","name":"Mangala Oil Field, Barmer \u2013 flare 4","site_type":"gas_flare","source":"osm","tags":{"man_made":"flare","name":"Mangala Oil Field, Barmer"}}},{"type":"Feature","geometry":{"type":"Point","coordinates":[72.37453706039082,23.547985879780718]},"properties":{"id":"flare1_0","name":"Mehsana ONGC Field \u2013 flare 1","site_type":"gas_flare","source":"osm","tags":{"man_made":"flare","name":"Mehsana ONGC Field"}}},{"type":"Feature","geometry":{"type":"Point","coordinates":[72.39491242688743,23.61676517632072]},"properties":{"id":"flare1_1","name":"Mehsana ONGC Field \u2013 flare 2","site_type":"gas_flare","source":"osm","tags":{"man_made":"flare","name":"Mehsana ONGC Field"}}},{"type":"Feature","geometry":{"type":"Point","coordinates":[72.4019684242288,23.615272112568224]},"properties":{"id":"flare1_2","name":"Mehsana ONGC Field \u2013 flare 3","site_type":"gas_flare","source":"osm","tags":{"man_made":"flare","name":"Mehsana ONGC Field"}}},{"type":"Feature","geometry":{"type":"Point","coordinates":[73.02697039081708,21.60383816986707]},"properties":{"id":"flare2_0","name":"Ankleshwar ONGC Field \u2013 flare 1","site_type":"gas_flare","source":"osm","tags":{"man_made":"flare","name":"Ankleshwar ONGC Field"}}},{"type":"Feature","geometry":{"type":"Point","coordinates":[72.9941370445859,21.645702435900976]},"properties":{"id":"flare2_1","name":"Ankleshwar ONGC Field \u2013 flare 2","site_type":"gas_flare","source":"osm","tags":{"man_made":"flare","name":"Ankleshwar ONGC Field"}}},{"type":"Feature","geometry":{"type":"Point","coordinates":[73.06591760810552,21.585893826833395]},"properties":{"id":"flare2_2","name":"Ankleshwar ONGC Field \u2013 flare 3","site_type":"gas_flare","source":"osm","tags":{"man_made":"flare","name":"Ankleshwar ONGC Field"}}},{"type":"Feature","geometry":{"type":"Point","coordinates":[95.33647891056961,27.382458361794715]},"properties":{"id":"flare3_0","name":"Duliajan Oil Field, Assam \u2013 flare 1","site_type":"gas_flare","source":"osm","tags":{"man_made":"flare","name":"Duliajan Oil Field, Assam"}}},{"type":"Feature","geometry":{"type":"Point","coordinates":[95.29753108318721,27.32521268817048]},"properties":{"id":"flare3_1","name":"Duliajan Oil Field, Assam \u2013 flare 2","site_type":"gas_flare","source":"osm","tags":{"man_made":"flare","name":"Duliajan Oil Field, Assam"}}},{"type":"Feature","geometry":{"type":"Point","coordinates":[95.34925570579247,27.34082926590848]},"properties":{"id":"flare3_2","name":"Duliajan Oil Field, Assam \u2013 flare 3","site_type":"gas_flare","source":"osm","tags":{"man_made":"flare","name":"Duliajan Oil Field, Assam"}}},{"type":"Feature","geometry":{"type":"Point","coordinates":[72.61525730093037,21.082483010465534]},"properties":{"id":"flare4_0","name":"Hazira LNG / gas terminal flare \u2013 flare 1","site_type":"gas_flare","source":"osm","tags":{"man_made":"flare","name":"Hazira LNG / gas terminal flare"}}},{"type":"Feature","geometry":{"type":"Point","coordinates":[70.13085999073512,22.344846414716603]},"properties":{"id":"flare5_0","name":"Jamnagar refinery flare stacks \u2013 flare 1","site_type":"gas_flare","source":"osm","tags":{"man_made":"flare","name":"Jamnagar refinery flare stacks"}}},{"type":"Feature","geometry":{"type":"Point","coordinates":[70.06865303447927,22.45949023103895]},"properties":{"id":"flare5_1","name":"Jamnagar refinery flare stacks \u2013 flare 2","site_type":"gas_flare","source":"osm","tags":{"man_made":"flare","name":"Jamnagar refinery flare stacks"}}},{"type":"Feature","geometry":{"type":"Point","coordinates":[86.61928940222866,20.28718912147241]},"properties":{"id":"flare6_0","name":"Paradip refinery flare \u2013 flare 1","site_type":"gas_flare","source":"osm","tags":{"man_made":"flare","name":"Paradip refinery flare"}}},{"type":"Feature","geometry":{"type":"Point","coordinates":[86.42,23.74]},"properties":{"id":"mine0","name":"Jharia Coalfield (coal-seam fires)","site_type":"mine","source":"osm","tags":{"landuse":"quarry","name":"Jharia Coalfield (coal-seam fires)"}}},{"type":"Feature","geometry":{"type":"Point","coordinates":[87.13,23.62]},"properties":{"id":"mine1","name":"Raniganj Coalfield","site_type":"mine","source":"osm","tags":{"landuse":"quarry","name":"Raniganj Coalfield"}}},{"type":"Feature","geometry":{"type":"Point","coordinates":[79.6,17.97]},"properties":{"id":"mine2","name":"Singareni Collieries","site_type":"mine","source":"osm","tags":{"landuse":"quarry","name":"Singareni Collieries"}}},{"type":"Feature","geometry":{"type":"Point","coordinates":[76.92,15.15]},"properties":{"id":"mine3","name":"Bellary Iron Ore Quarries","site_type":"mine","source":"osm","tags":{"landuse":"quarry","name":"Bellary Iron Ore Quarries"}}},{"type":"Feature","geometry":{"type":"Point","coordinates":[85.58,21.63]},"properties":{"id":"mine4","name":"Keonjhar Iron Ore Mines","site_type":"mine","source":"osm","tags":{"landuse":"quarry","name":"Keonjhar Iron Ore Mines"}}},{"type":"Feature","geometry":{"type":"Point","coordinates":[80.32687507263852,26.697616246323676]},"properties":{"id":"kiln0_0","name":"Brick kiln","site_type":"brick_kiln","source":"osm","tags":{"industrial":"brickyard"}}},{"type":"Feature","geometry":{"type":"Point","coordinates":[80.55960030808939,26.52035293655882]},"properties":{"id":"kiln0_3","name":"Brick kiln","site_type":"brick_kiln","source":"osm","tags":{"industrial":"brickyard"}}},{"type":"Feature","geometry":{"type":"Point","coordinates":[80.35714579296568,26.307732941645618]},"properties":{"id":"kiln0_6","name":"Brick kiln","site_type":"brick_kiln","source":"osm","tags":{"industrial":"brickyard"}}},{"type":"Feature","geometry":{"type":"Point","coordinates":[80.4988316567044,26.424493291621737]},"properties":{"id":"kiln0_9","name":"Brick kiln","site_type":"brick_kiln","source":"osm","tags":{"industrial":"brickyard"}}},{"type":"Feature","geometry":{"type":"Point","coordinates":[80.29062327373768,26.304320097026295]},"properties":{"id":"kiln0_12","name":"Brick kiln","site_type":"brick_kiln","source":"osm","tags":{"industrial":"brickyard"}}},{"type":"Feature","geometry":{"type":"Point","coordinates":[80.21459743513437,26.591975032464525]},"properties":{"id":"kiln0_15","name":"Brick kiln","site_type":"brick_kiln","source":"osm","tags":{"industrial":"brickyard"}}},{"type":"Feature","geometry":{"type":"Point","coordinates":[80.265957391511,26.344367507959067]},"properties":{"id":"kiln0_18","name":"Brick kiln","site_type":"brick_kiln","source":"osm","tags":{"industrial":"brickyard"}}},{"type":"Feature","geometry":{"type":"Point","coordinates":[80.2277661198016,26.760472119366]},"properties":{"id":"kiln0_21","name":"Brick kiln","site_type":"brick_kiln","source":"osm","tags":{"industrial":"brickyard"}}},{"type":"Feature","geometry":{"type":"Point","coordinates":[80.2025378463509,26.56038369352661]},"properties":{"id":"kiln0_24","name":"Brick kiln","site_type":"brick_kiln","source":"osm","tags":{"industrial":"brickyard"}}},{"type":"Feature","geometry":{"type":"Point","coordinates":[85.35541316536394,25.6460230867679]},"properties":{"id":"kiln1_0","name":"Brick kiln","site_type":"brick_kiln","source":"osm","tags":{"industrial":"brickyard"}}},{"type":"Feature","geometry":{"type":"Point","coordinates":[85.37689009520844,25.499342310744]},"properties":{"id":"kiln1_3","name":"Brick kiln","site_type":"brick_kiln","source":"osm","tags":{"industrial":"brickyard"}}},{"type":"Feature","geometry":{"type":"Point","coordinates":[84.9806525429528,25.76126926175831]},"properties":{"id":"kiln1_6","name":"Brick kiln","site_type":"brick_kiln","source":"osm","tags":{"industrial":"brickyard"}}},{"type":"Feature","geometry":{"type":"Point","coordinates":[85.19073548995732,25.604726298811055]},"properties":{"id":"kiln1_9","name":"Brick kiln","site_type":"brick_kiln","source":"osm","tags":{"industrial":"brickyard"}}},{"type":"Feature","geometry":{"type":"Point","coordinates":[85.05563522684682,25.309504945346358]},"properties":{"id":"kiln1_12","name":"Brick kiln","site_type":"brick_kiln","source":"osm","tags":{"industrial":"brickyard"}}},{"type":"Feature","geometry":{"type":"Point","coordinates":[85.39569551234844,25.523381009837827]},"properties":{"id":"kiln1_15","name":"Brick kiln","site_type":"brick_kiln","source":"osm","tags":{"industrial":"brickyard"}}},{"type":"Feature","geometry":{"type":"Point","coordinates":[85.44594277733745,25.566188141090297]},"properties":{"id":"kiln1_18","name":"Brick kiln","site_type":"brick_kiln","source":"osm","tags":{"industrial":"brickyard"}}},{"type":"Feature","geometry":{"type":"Point","coordinates":[82.83467772895104,25.278171020594066]},"properties":{"id":"kiln2_0","name":"Brick kiln","site_type":"brick_kiln","source":"osm","tags":{"industrial":"brickyard"}}},{"type":"Feature","geometry":{"type":"Point","coordinates":[82.97800182761499,25.435330971769908]},"properties":{"id":"kiln2_3","name":"Brick kiln","site_type":"brick_kiln","source":"osm","tags":{"industrial":"brickyard"}}},{"type":"Feature","geometry":{"type":"Point","coordinates":[82.97381794888425,25.27191944717381]},"properties":{"id":"kiln2_6","name":"Brick kiln","site_type":"brick_kiln","source":"osm","tags":{"industrial":"brickyard"}}},{"type":"Feature","geometry":{"type":"Point","coordinates":[83.06997226283455,25.17054318365961]},"properties":{"id":"kiln2_9","name":"Brick kiln","site_type":"brick_kiln","source":"osm","tags":{"industrial":"brickyard"}}},{"type":"Feature","geometry":{"type":"Point","coordinates":[82.75011098657612,25.121366381172674]},"properties":{"id":"kiln2_12","name":"Brick kiln","site_type":"brick_kiln","source":"osm","tags":{"industrial":"brickyard"}}}]}