{"type":"FeatureCollection","features":[{"type":"Feature","geometry":{"type":"Point","coordinates":[86.61704,20.28472]},"properties":{"group_id":"c14","n_det":399,"n_days":90,"span_days":89.51,"night_frac":0.664,"frp_mean":11.57,"frp_max":42.9,"persistence_score":0.987,"label":"INDUSTRIAL_FIRE","confidence":0.898,"nearest_site_name":"Paradip Refinery","nearest_site_type":"refinery","dist_industrial_km":0.044,"landcover":"industrial","first_seen":"2025-03-01","last_seen":"2025-05-29","n_anomalies":5,"radius_m":881}},{"type":"Feature","geometry":{"type":"Point","coordinates":[70.04902,22.35183]},"properties":{"group_id":"c11","n_det":469,"n_days":86,"span_days":89.53,"night_frac":0.586,"frp_mean":19.38,"frp_max":206.53,"persistence_score":0.973,"label":"INDUSTRIAL_FIRE","confidence":1.0,"nearest_site_name":"Jamnagar Refinery Complex","nearest_site_type":"refinery","dist_industrial_km":0.03,"landcover":"industrial","first_seen":"2025-03-01","last_seen":"2025-05-29","n_anomalies":6,"radius_m":970}},{"type":"Feature","geometry":{"type":"Point","coordinates":[71.44573,25.975]},"properties":{"group_id":"c36","n_det":131,"n_days":84,"span_days":89.53,"night_frac":0.824,"frp_mean":6.01,"frp_max":11.9,"persistence_score":0.973,"label":"GAS_FLARE","confidence":1.0,"nearest_site_name":"Mangala Oil Field, Barmer \u2013 flare 3","nearest_site_type":"gas_flare","dist_industrial_km":0.021,"landcover":"bare","first_seen":"2025-03-01","last_seen":"2025-05-29","n_anomalies":0,"radius_m":393}},{"type":"Feature","geometry":{"type":"Point","coordinates":[83.16956,17.62977]},"properties":{"group_id":"c2","n_det":339,"n_days":84,"span_days":89.52,"night_frac":0.501,"frp_mean":22.03,"frp_max":66.65,"persistence_score":0.973,"label":"INDUSTRIAL_FIRE","confidence":1.0,"nearest_site_name":"Visakhapatnam Steel Plant","nearest_site_type":"steel_plant","dist_industrial_km":0.047,"landcover":"industrial","first_seen":"2025-03-01","last_seen":"2025-05-29","n_anomalies":4,"radius_m":961}},{"type":"Feature","geometry":{"type":"Point","coordinates":[86.41979,23.7413]},"properties":{"group_id":"c20","n_det":670,"n_days":86,"span_days":89.56,"night_frac":0.494,"frp_mean":5.83,"frp_max":24.22,"persistence_score":0.973,"label":"MINING_ACTIVITY","confidence":0.998,"nearest_site_name":"Jharia Coalfield (coal-seam fires)","nearest_site_type":"mine","dist_industrial_km":0.108,"landcover":"mining","first_seen":"2025-03-01","last_seen":"2025-05-29","n_anomalies":10,"radius_m":3024}},{"type":"Feature","geometry":{"type":"Point","coordinates":[76.82421,15.2197]},"properties":{"group_id":"c10","n_det":166,"n_days":79,"span_days":89.58,"night_frac":0.343,"frp_mean":10.06,"frp_max":40.32,"persistence_score":0.973,"label":"INDUSTRIAL_FIRE","confidence":1.0,"nearest_site_name":"Bellary Iron Ore Quarries","nearest_site_type":"none","dist_industrial_km":12.272,"landcover":"industrial","first_seen":"2025-03-01","last_seen":"2025-05-29","n_anomalies":4,"radius_m":1279}},{"type":"Feature","geometry":{"type":"Point","coordinates":[72.39839,23.61596]},"properties":{"group_id":"c45","n_det":250,"n_days":89,"span_days":89.09,"night_frac":0.872,"frp_mean":5.93,"frp_max":12.18,"persistence_score":0.973,"label":"GAS_FLARE","confidence":1.0,"nearest_site_name":"Mehsana ONGC Field \u2013 flare 3","nearest_site_type":"gas_flare","dist_industrial_km":0.009,"landcover":"unknown","first_seen":"2025-03-01","last_seen":"2025-05-29","n_anomalies":0,"radius_m":651}},{"type":"Feature","geometry":{"type":"Point","coordinates":[71.42631,25.9704]},"properties":{"group_id":"c85","n_det":115,"n_days":79,"span_days":87.99,"night_frac":0.843,"frp_mean":6.0,"frp_max":12.28,"persistence_score":0.973,"label":"GAS_FLARE","confidence":1.0,"nearest_site_name":"Mangala Oil Field, Barmer \u2013 flare 4","nearest_site_type":"gas_flare","dist_industrial_km":0.02,"landcover":"unknown","first_seen":"2025-03-02","last_seen":"2025-05-29","n_anomalies":0,"radius_m":442}},{"type":"Feature","geometry":{"type":"Point","coordinates":[86.19996,22.78998]},"properties":{"group_id":"c9","n_det":426,"n_days":84,"span_days":89.54,"night_frac":0.535,"frp_mean":26.24,"frp_max":100.94,"persistence_score":0.973,"label":"INDUSTRIAL_FIRE","confidence":1.0,"nearest_site_name":"Tata Steel Jamshedpur","nearest_site_type":"steel_plant","dist_industrial_km":0.024,"landcover":"industrial","first_seen":"2025-03-01","last_seen":"2025-05-29","n_anomalies":7,"radius_m":944}},{"type":"Feature","geometry":{"type":"Point","coordinates":[76.70002,15.17971]},"properties":{"group_id":"c60","n_det":427,"n_days":80,"span_days":88.57,"night_frac":0.534,"frp_mean":30.08,"frp_max":115.01,"persistence_score":0.973,"label":"INDUSTRIAL_FIRE","confidence":1.0,"nearest_site_name":"JSW Vijayanagar Steel","nearest_site_type":"steel_plant","dist_industrial_km":0.025,"landcover":"industrial","first_seen":"2025-03-02","last_seen":"2025-05-29","n_anomalies":6,"radius_m":958}},{"type":"Feature","geometry":{"type":"Point","coordinates":[71.44018,25.98974]},"properties":{"group_id":"c54","n_det":124,"n_days":86,"span_days":89.02,"night_frac":0.879,"frp_mean":6.29,"frp_max":11.38,"persistence_score":0.973,"label":"GAS_FLARE","confidence":1.0,"nearest_site_name":"Mangala Oil Field, Barmer \u2013 flare 1","nearest_site_type":"gas_flare","dist_industrial_km":0.013,"landcover":"unknown","first_seen":"2025-03-01","last_seen":"2025-05-29","n_anomalies":0,"radius_m":433}},{"type":"Feature","geometry":{"type":"Point","coordinates":[73.02708,21.6041]},"properties":{"group_id":"c56","n_det":119,"n_days":83,"span_days":88.94,"night_frac":0.807,"frp_mean":5.96,"frp_max":11.97,"persistence_score":0.973,"label":"GAS_FLARE","confidence":1.0,"nearest_site_name":"Ankleshwar ONGC Field \u2013 flare 1","nearest_site_type":"gas_flare","dist_industrial_km":0.01,"landcover":"bare","first_seen":"2025-03-01","last_seen":"2025-05-29","n_anomalies":0,"radius_m":440}},{"type":"Feature","geometry":{"type":"Point","coordinates":[86.15018,23.67197]},"properties":{"group_id":"c48","n_det":427,"n_days":84,"span_days":88.07,"night_frac":0.499,"frp_mean":24.96,"frp_max":98.85,"persistence_score":0.973,"label":"INDUSTRIAL_FIRE","confidence":1.0,"nearest_site_name":"Bokaro Steel Plant","nearest_site_type":"steel_plant","dist_industrial_km":0.04,"landcover":"industrial","first_seen":"2025-03-01","last_seen":"2025-05-28","n_anomalies":7,"radius_m":971}},{"type":"Feature","geometry":{"type":"Point","coordinates":[70.13084,22.34488]},"properties":{"group_id":"c51","n_det":114,"n_days":79,"span_days":89.05,"night_frac":0.921,"frp_mean":5.94,"frp_max":10.65,"persistence_score":0.973,"label":"GAS_FLARE","confidence":1.0,"nearest_site_name":"Jamnagar refinery flare stacks \u2013 flare 1","nearest_site_type":"gas_flare","dist_industrial_km":0.02,"landcover":"bare","first_seen":"2025-03-01","last_seen":"2025-05-29","n_anomalies":0,"radius_m":457}},{"type":"Feature","geometry":{"type":"Point","coordinates":[72.99417,21.6454]},"properties":{"group_id":"c43","n_det":128,"n_days":80,"span_days":89.1,"night_frac":0.914,"frp_mean":6.09,"frp_max":16.37,"persistence_score":0.973,"label":"GAS_FLARE","confidence":1.0,"nearest_site_name":"Ankleshwar ONGC Field \u2013 flare 2","nearest_site_type":"gas_flare","dist_industrial_km":0.005,"landcover":"unknown","first_seen":"2025-03-01","last_seen":"2025-05-29","n_anomalies":1,"radius_m":442}},{"type":"Feature","geometry":{"type":"Point","coordinates":[95.29736,27.32509]},"properties":{"group_id":"c47","n_det":125,"n_days":82,"span_days":89.04,"night_frac":0.824,"frp_mean":6.0,"frp_max":12.3,"persistence_score":0.973,"label":"GAS_FLARE","confidence":1.0,"nearest_site_name":"Duliajan Oil Field, Assam \u2013 flare 2","nearest_site_type":"gas_flare","dist_industrial_km":0.028,"landcover":"industrial","first_seen":"2025-03-01","last_seen":"2025-05-29","n_anomalies":0,"radius_m":456}},{"type":"Feature","geometry":{"type":"Point","coordinates":[72.37474,23.54826]},"properties":{"group_id":"c39","n_det":119,"n_days":81,"span_days":89.11,"night_frac":0.857,"frp_mean":6.15,"frp_max":16.14,"persistence_score":0.973,"label":"GAS_FLARE","confidence":1.0,"nearest_site_name":"Mehsana ONGC Field \u2013 flare 1","nearest_site_type":"gas_flare","dist_industrial_km":0.031,"landcover":"bare","first_seen":"2025-03-01","last_seen":"2025-05-29","n_anomalies":1,"radius_m":424}},{"type":"Feature","geometry":{"type":"Point","coordinates":[81.38003,21.18971]},"properties":{"group_id":"c1","n_det":438,"n_days":80,"span_days":89.5,"night_frac":0.553,"frp_mean":31.75,"frp_max":414.24,"persistence_score":0.96,"label":"INDUSTRIAL_FIRE","confidence":1.0,"nearest_site_name":"Bhilai Steel Plant","nearest_site_type":"steel_plant","dist_industrial_km":0.024,"landcover":"industrial","first_seen":"2025-03-01","last_seen":"2025-05-29","n_anomalies":6,"radius_m":946}},{"type":"Feature","geometry":{"type":"Point","coordinates":[83.38458,21.90913]},"properties":{"group_id":"c52","n_det":140,"n_days":67,"span_days":89.01,"night_frac":0.429,"frp_mean":12.04,"frp_max":40.17,"persistence_score":0.96,"label":"INDUSTRIAL_FIRE","confidence":1.0,"nearest_site_name":"Vedanta Jharsuguda Smelter","nearest_site_type":"none","dist_industrial_km":65.105,"landcover":"industrial","first_seen":"2025-03-01","last_seen":"2025-05-29","n_anomalies":2,"radius_m":496}},{"type":"Feature","geometry":{"type":"Point","coordinates":[71.40968,25.96025]},"properties":{"group_id":"c44","n_det":111,"n_days":79,"span_days":88.02,"night_frac":0.901,"frp_mean":5.81,"frp_max":11.09,"persistence_score":0.96,"label":"GAS_FLARE","confidence":1.0,"nearest_site_name":"Mangala Oil Field, Barmer \u2013 flare 2","nearest_site_type":"gas_flare","dist_industrial_km":0.008,"landcover":"bare","first_seen":"2025-03-01","last_seen":"2025-05-28","n_anomalies":0,"radius_m":473}},{"type":"Feature","geometry":{"type":"Point","coordinates":[72.61562,21.08244]},"properties":{"group_id":"c49","n_det":121,"n_days":80,"span_days":89.03,"night_frac":0.909,"frp_mean":5.93,"frp_max":10.14,"persistence_score":0.96,"label":"GAS_FLARE","confidence":1.0,"nearest_site_name":"Hazira LNG / gas terminal flare \u2013 flare 1","nearest_site_type":"gas_flare","dist_industrial_km":0.007,"landcover":"industrial","first_seen":"2025-03-01","last_seen":"2025-05-29","n_anomalies":0,"radius_m":415}},{"type":"Feature","geometry":{"type":"Point","coordinates":[82.66983,24.10033]},"properties":{"group_id":"c55","n_det":144,"n_days":71,"span_days":88.47,"night_frac":0.507,"frp_mean":12.45,"frp_max":35.3,"persistence_score":0.96,"label":"INDUSTRIAL_FIRE","confidence":1.0,"nearest_site_name":"Singrauli / Vindhyachal STPS","nearest_site_type":"power_plant","dist_industrial_km":0.023,"landcover":"industrial","first_seen":"2025-03-01","last_seen":"2025-05-29","n_anomalies":3,"radius_m":824}},{"type":"Feature","geometry":{"type":"Point","coordinates":[95.33612,27.38263]},"properties":{"group_id":"c46","n_det":128,"n_days":82,"span_days":89.05,"night_frac":0.891,"frp_mean":6.01,"frp_max":11.56,"persistence_score":0.96,"label":"GAS_FLARE","confidence":1.0,"nearest_site_name":"Duliajan Oil Field, Assam \u2013 flare 1","nearest_site_type":"gas_flare","dist_industrial_km":0.024,"landcover":"industrial","first_seen":"2025-03-01","last_seen":"2025-05-29","n_anomalies":0,"radius_m":402}},{"type":"Feature","geometry":{"type":"Point","coordinates":[84.85964,22.21976]},"properties":{"group_id":"c0","n_det":326,"n_days":80,"span_days":89.58,"night_frac":0.512,"frp_mean":21.11,"frp_max":65.5,"persistence_score":0.96,"label":"INDUSTRIAL_FIRE","confidence":1.0,"nearest_site_name":"Rourkela Steel Plant","nearest_site_type":"steel_plant","dist_industrial_km":0.023,"landcover":"industrial","first_seen":"2025-03-01","last_seen":"2025-05-29","n_anomalies":1,"radius_m":929}},{"type":"Feature","geometry":{"type":"Point","coordinates":[74.83057,12.97195]},"properties":{"group_id":"c37","n_det":189,"n_days":77,"span_days":89.48,"night_frac":0.614,"frp_mean":12.67,"frp_max":32.42,"persistence_score":0.96,"label":"INDUSTRIAL_FIRE","confidence":0.899,"nearest_site_name":"MRPL Mangalore","nearest_site_type":"refinery","dist_industrial_km":0.007,"landcover":"industrial","first_seen":"2025-03-01","last_seen":"2025-05-29","n_anomalies":1,"radius_m":831}},{"type":"Feature","geometry":{"type":"Point","coordinates":[69.54479,22.82215]},"properties":{"group_id":"c71","n_det":142,"n_days":67,"span_days":88.56,"night_frac":0.437,"frp_mean":11.17,"frp_max":49.26,"persistence_score":0.96,"label":"INDUSTRIAL_FIRE","confidence":1.0,"nearest_site_name":"Mundra Thermal Power","nearest_site_type":"power_plant","dist_industrial_km":0.033,"landcover":"industrial","first_seen":"2025-03-02","last_seen":"2025-05-29","n_anomalies":2,"radius_m":912}},{"type":"Feature","geometry":{"type":"Point","coordinates":[73.06581,21.58614]},"properties":{"group_id":"c75","n_det":126,"n_days":83,"span_days":88.55,"night_frac":0.825,"frp_mean":6.06,"frp_max":11.01,"persistence_score":0.96,"label":"GAS_FLARE","confidence":1.0,"nearest_site_name":"Ankleshwar ONGC Field \u2013 flare 3","nearest_site_type":"gas_flare","dist_industrial_km":0.019,"landcover":"industrial","first_seen":"2025-03-02","last_seen":"2025-05-29","n_anomalies":0,"radius_m":441}},{"type":"Feature","geometry":{"type":"Point","coordinates":[76.92997,29.42495]},"properties":{"group_id":"c4","n_det":293,"n_days":80,"span_days":89.55,"night_frac":0.597,"frp_mean":14.97,"frp_max":46.59,"persistence_score":0.96,"label":"INDUSTRIAL_FIRE","confidence":1.0,"nearest_site_name":"Panipat Refinery & Petrochemical","nearest_site_type":"refinery","dist_industrial_km":0.064,"landcover":"industrial","first_seen":"2025-03-01","last_seen":"2025-05-29","n_anomalies":1,"radius_m":980}},{"type":"Feature","geometry":{"type":"Point","coordinates":[95.34916,27.34084]},"properties":{"group_id":"c74","n_det":119,"n_days":81,"span_days":88.48,"night_frac":0.866,"frp_mean":6.1,"frp_max":13.06,"persistence_score":0.96,"label":"GAS_FLARE","confidence":1.0,"nearest_site_name":"Duliajan Oil Field, Assam \u2013 flare 3","nearest_site_type":"gas_flare","dist_industrial_km":0.018,"landcover":"unknown","first_seen":"2025-03-02","last_seen":"2025-05-29","n_anomalies":0,"radius_m":403}},{"type":"Feature","geometry":{"type":"Point","coordinates":[84.0101,21.79999]},"properties":{"group_id":"c64","n_det":293,"n_days":79,"span_days":87.57,"night_frac":0.488,"frp_mean":19.3,"frp_max":65.93,"persistence_score":0.947,"label":"INDUSTRIAL_FIRE","confidence":1.0,"nearest_site_name":"Vedanta Jharsuguda Smelter","nearest_site_type":"steel_plant","dist_industrial_km":0.024,"landcover":"industrial","first_seen":"2025-03-02","last_seen":"2025-05-28","n_anomalies":4,"radius_m":1022}},{"type":"Feature","geometry":{"type":"Point","coordinates":[72.64926,21.10481]},"properties":{"group_id":"c40","n_det":133,"n_days":66,"span_days":89.03,"night_frac":0.564,"frp_mean":9.49,"frp_max":20.07,"persistence_score":0.947,"label":"INDUSTRIAL_FIRE","confidence":1.0,"nearest_site_name":"Hazira Petrochemical Complex","nearest_site_type":"chemical_plant","dist_industrial_km":0.007,"landcover":"industrial","first_seen":"2025-03-01","last_seen":"2025-05-29","n_anomalies":0,"radius_m":1021}},{"type":"Feature","geometry":{"type":"Point","coordinates":[83.43974,21.89815]},"properties":{"group_id":"c88","n_det":130,"n_days":65,"span_days":87.98,"night_frac":0.415,"frp_mean":11.68,"frp_max":41.74,"persistence_score":0.947,"label":"INDUSTRIAL_FIRE","confidence":1.0,"nearest_site_name":"Vedanta Jharsuguda Smelter","nearest_site_type":"none","dist_industrial_km":59.384,"landcover":"industrial","first_seen":"2025-03-02","last_seen":"2025-05-29","n_anomalies":4,"radius_m":496}},{"type":"Feature","geometry":{"type":"Point","coordinates":[83.41172,21.91178]},"properties":{"group_id":"c72","n_det":125,"n_days":59,"span_days":86.52,"night_frac":0.488,"frp_mean":13.7,"frp_max":79.81,"persistence_score":0.947,"label":"INDUSTRIAL_FIRE","confidence":1.0,"nearest_site_name":"Vedanta Jharsuguda Smelter","nearest_site_type":"none","dist_industrial_km":62.417,"landcover":"industrial","first_seen":"2025-03-02","last_seen":"2025-05-27","n_anomalies":2,"radius_m":468}},{"type":"Feature","geometry":{"type":"Point","coordinates":[82.68024,22.36034]},"properties":{"group_id":"c19","n_det":142,"n_days":71,"span_days":89.02,"night_frac":0.528,"frp_mean":12.21,"frp_max":47.61,"persistence_score":0.947,"label":"INDUSTRIAL_FIRE","confidence":1.0,"nearest_site_name":"Korba Super Thermal Power","nearest_site_type":"power_plant","dist_industrial_km":0.061,"landcover":"industrial","first_seen":"2025-03-01","last_seen":"2025-05-29","n_anomalies":2,"radius_m":922}},{"type":"Feature","geometry":{"type":"Point","coordinates":[81.61145,21.37609]},"properties":{"group_id":"c13","n_det":121,"n_days":61,"span_days":89.55,"night_frac":0.529,"frp_mean":12.34,"frp_max":34.53,"persistence_score":0.947,"label":"INDUSTRIAL_FIRE","confidence":1.0,"nearest_site_name":"Bhilai Steel Plant","nearest_site_type":"none","dist_industrial_km":31.218,"landcover":"industrial","first_seen":"2025-03-01","last_seen":"2025-05-29","n_anomalies":0,"radius_m":542}},{"type":"Feature","geometry":{"type":"Point","coordinates":[74.92112,30.25794]},"properties":{"group_id":"c21","n_det":190,"n_days":75,"span_days":89.5,"night_frac":0.553,"frp_mean":12.13,"frp_max":32.4,"persistence_score":0.947,"label":"INDUSTRIAL_FIRE","confidence":1.0,"nearest_site_name":"Guru Gobind Singh Refinery, Bathinda","nearest_site_type":"refinery","dist_industrial_km":0.045,"landcover":"industrial","first_seen":"2025-03-01","last_seen":"2025-05-29","n_anomalies":2,"radius_m":1000}},{"type":"Feature","geometry":{"type":"Point","coordinates":[87.27042,23.5334]},"properties":{"group_id":"c23","n_det":270,"n_days":75,"span_days":89.47,"night_frac":0.504,"frp_mean":18.53,"frp_max":50.81,"persistence_score":0.947,"label":"INDUSTRIAL_FIRE","confidence":1.0,"nearest_site_name":"Durgapur Steel Plant","nearest_site_type":"steel_plant","dist_industrial_km":0.045,"landcover":"industrial","first_seen":"2025-03-01","last_seen":"2025-05-29","n_anomalies":2,"radius_m":959}},{"type":"Feature","geometry":{"type":"Point","coordinates":[81.64071,21.37959]},"properties":{"group_id":"c3","n_det":228,"n_days":80,"span_days":89.58,"night_frac":0.544,"frp_mean":11.69,"frp_max":56.01,"persistence_score":0.947,"label":"INDUSTRIAL_FIRE","confidence":1.0,"nearest_site_name":"Bhilai Steel Plant","nearest_site_type":"none","dist_industrial_km":33.074,"landcover":"industrial","first_seen":"2025-03-01","last_seen":"2025-05-29","n_anomalies":3,"radius_m":1121}},{"type":"Feature","geometry":{"type":"Point","coordinates":[85.1004,20.83971]},"properties":{"group_id":"c33","n_det":263,"n_days":77,"span_days":88.97,"night_frac":0.521,"frp_mean":19.59,"frp_max":72.0,"persistence_score":0.947,"label":"INDUSTRIAL_FIRE","confidence":1.0,"nearest_site_name":"NALCO Angul Smelter","nearest_site_type":"steel_plant","dist_industrial_km":0.016,"landcover":"industrial","first_seen":"2025-03-01","last_seen":"2025-05-29","n_anomalies":4,"radius_m":983}},{"type":"Feature","geometry":{"type":"Point","coordinates":[86.05392,22.95145]},"properties":{"group_id":"c30","n_det":162,"n_days":76,"span_days":88.98,"night_frac":0.475,"frp_mean":9.82,"frp_max":37.98,"persistence_score":0.947,"label":"INDUSTRIAL_FIRE","confidence":1.0,"nearest_site_name":"Tata Steel Jamshedpur","nearest_site_type":"none","dist_industrial_km":22.633,"landcover":"industrial","first_seen":"2025-03-01","last_seen":"2025-05-29","n_anomalies":4,"radius_m":857}},{"type":"Feature","geometry":{"type":"Point","coordinates":[70.06884,22.4593]},"properties":{"group_id":"c41","n_det":119,"n_days":77,"span_days":89.1,"night_frac":0.857,"frp_mean":6.02,"frp_max":15.7,"persistence_score":0.933,"label":"GAS_FLARE","confidence":1.0,"nearest_site_name":"Jamnagar refinery flare stacks \u2013 flare 2","nearest_site_type":"gas_flare","dist_industrial_km":0.021,"landcover":"industrial","first_seen":"2025-03-01","last_seen":"2025-05-29","n_anomalies":1,"radius_m":399}},{"type":"Feature","geometry":{"type":"Point","coordinates":[76.99054,17.06009]},"properties":{"group_id":"c86","n_det":63,"n_days":44,"span_days":86.96,"night_frac":0.444,"frp_mean":7.61,"frp_max":18.33,"persistence_score":0.933,"label":"INDUSTRIAL_FIRE","confidence":1.0,"nearest_site_name":"ACC Wadi Cement","nearest_site_type":"cement_plant","dist_industrial_km":0.052,"landcover":"industrial","first_seen":"2025-03-02","last_seen":"2025-05-28","n_anomalies":0,"radius_m":939}},{"type":"Feature","geometry":{"type":"Point","coordinates":[85.08799,20.94556]},"properties":{"group_id":"c32","n_det":131,"n_days":64,"span_days":88.97,"night_frac":0.45,"frp_mean":9.83,"frp_max":37.16,"persistence_score":0.933,"label":"INDUSTRIAL_FIRE","confidence":1.0,"nearest_site_name":"NTPC Talcher Kaniha","nearest_site_type":"power_plant","dist_industrial_km":0.044,"landcover":"industrial","first_seen":"2025-03-01","last_seen":"2025-05-29","n_anomalies":4,"radius_m":1000}},{"type":"Feature","geometry":{"type":"Point","coordinates":[77.69997,27.47242]},"properties":{"group_id":"c27","n_det":191,"n_days":70,"span_days":89.02,"night_frac":0.497,"frp_mean":12.48,"frp_max":38.48,"persistence_score":0.933,"label":"INDUSTRIAL_FIRE","confidence":1.0,"nearest_site_name":"Mathura Refinery","nearest_site_type":"refinery","dist_industrial_km":0.019,"landcover":"industrial","first_seen":"2025-03-01","last_seen":"2025-05-29","n_anomalies":1,"radius_m":1023}},{"type":"Feature","geometry":{"type":"Point","coordinates":[84.96955,25.749]},"properties":{"group_id":"c22","n_det":36,"n_days":36,"span_days":85.0,"night_frac":0.444,"frp_mean":4.43,"frp_max":25.14,"persistence_score":0.933,"label":"INDUSTRIAL_FIRE","confidence":1.0,"nearest_site_name":"Brick kiln","nearest_site_type":"brick_kiln","dist_industrial_km":1.544,"landcover":"unknown","first_seen":"2025-03-01","last_seen":"2025-05-25","n_anomalies":1,"radius_m":307}},{"type":"Feature","geometry":{"type":"Point","coordinates":[82.29036,22.13503]},"properties":{"group_id":"c18","n_det":78,"n_days":52,"span_days":84.53,"night_frac":0.513,"frp_mean":9.0,"frp_max":28.57,"persistence_score":0.933,"label":"INDUSTRIAL_FIRE","confidence":1.0,"nearest_site_name":"Sipat Thermal Power","nearest_site_type":"power_plant","dist_industrial_km":0.009,"landcover":"industrial","first_seen":"2025-03-01","last_seen":"2025-05-24","n_anomalies":2,"radius_m":969}},{"type":"Feature","geometry":{"type":"Point","coordinates":[87.1287,23.61841]},"properties":{"group_id":"c28","n_det":115,"n_days":49,"span_days":88.55,"night_frac":0.522,"frp_mean":4.87,"frp_max":17.6,"persistence_score":0.933,"label":"MINING_ACTIVITY","confidence":1.0,"nearest_site_name":"Raniganj Coalfield","nearest_site_type":"mine","dist_industrial_km":0.274,"landcover":"mining","first_seen":"2025-03-01","last_seen":"2025-05-28","n_anomalies":1,"radius_m":1903}},{"type":"Feature","geometry":{"type":"Point","coordinates":[79.60047,17.97048]},"properties":{"group_id":"c53","n_det":58,"n_days":38,"span_days":88.99,"night_frac":0.448,"frp_mean":5.09,"frp_max":22.61,"persistence_score":0.933,"label":"MINING_ACTIVITY","confidence":1.0,"nearest_site_name":"Singareni Collieries","nearest_site_type":"mine","dist_industrial_km":0.076,"landcover":"mining","first_seen":"2025-03-01","last_seen":"2025-05-29","n_anomalies":1,"radius_m":1283}},{"type":"Feature","geometry":{"type":"Point","coordinates":[82.98461,25.18461]},"properties":{"group_id":"c113","n_det":35,"n_days":35,"span_days":84.62,"night_frac":0.457,"frp_mean":4.09,"frp_max":11.55,"persistence_score":0.933,"label":"INDUSTRIAL_FIRE","confidence":1.0,"nearest_site_name":"Brick kiln","nearest_site_type":"brick_kiln","dist_industrial_km":8.432,"landcover":"cropland","first_seen":"2025-03-06","last_seen":"2025-05-29","n_anomalies":1,"radius_m":319}},{"type":"Feature","geometry":{"type":"Point","coordinates":[85.00497,25.31992]},"properties":{"group_id":"c104","n_det":65,"n_days":50,"span_days":86.0,"night_frac":0.446,"frp_mean":3.92,"frp_max":10.15,"persistence_score":0.933,"label":"INDUSTRIAL_FIRE","confidence":1.0,"nearest_site_name":"Brick kiln","nearest_site_type":"brick_kiln","dist_industrial_km":4.269,"landcover":"industrial","first_seen":"2025-03-03","last_seen":"2025-05-28","n_anomalies":1,"radius_m":698}},{"type":"Feature","geometry":{"type":"Point","coordinates":[83.07837,25.13425]},"properties":{"group_id":"c62","n_det":36,"n_days":36,"span_days":88.5,"night_frac":0.417,"frp_mean":3.51,"frp_max":7.78,"persistence_score":0.92,"label":"INDUSTRIAL_FIRE","confidence":1.0,"nearest_site_name":"Brick kiln","nearest_site_type":"brick_kiln","dist_industrial_km":3.716,"landcover":"industrial","first_seen":"2025-03-02","last_seen":"2025-05-29","n_anomalies":0,"radius_m":349}},{"type":"Feature","geometry":{"type":"Point","coordinates":[80.5598,26.52051]},"properties":{"group_id":"c29","n_det":39,"n_days":39,"span_days":82.96,"night_frac":0.282,"frp_mean":3.75,"frp_max":10.83,"persistence_score":0.92,"label":"INDUSTRIAL_FIRE","confidence":1.0,"nearest_site_name":"Brick kiln","nearest_site_type":"brick_kiln","dist_industrial_km":0.04,"landcover":"industrial","first_seen":"2025-03-01","last_seen":"2025-05-23","n_anomalies":1,"radius_m":402}},{"type":"Feature","geometry":{"type":"Point","coordinates":[79.47068,18.75543]},"properties":{"group_id":"c35","n_det":87,"n_days":56,"span_days":88.55,"night_frac":0.563,"frp_mean":8.26,"frp_max":23.0,"persistence_score":0.92,"label":"INDUSTRIAL_FIRE","confidence":1.0,"nearest_site_name":"Ramagundam STPS","nearest_site_type":"power_plant","dist_industrial_km":0.062,"landcover":"industrial","first_seen":"2025-03-01","last_seen":"2025-05-28","n_anomalies":1,"radius_m":1026}},{"type":"Feature","geometry":{"type":"Point","coordinates":[80.1987,26.72302]},"properties":{"group_id":"c42","n_det":35,"n_days":35,"span_days":85.04,"night_frac":0.429,"frp_mean":4.25,"frp_max":14.35,"persistence_score":0.92,"label":"INDUSTRIAL_FIRE","confidence":1.0,"nearest_site_name":"Brick kiln","nearest_site_type":"brick_kiln","dist_industrial_km":4.666,"landcover":"industrial","first_seen":"2025-03-01","last_seen":"2025-05-25","n_anomalies":1,"radius_m":399}},{"type":"Feature","geometry":{"type":"Point","coordinates":[79.4,19.89914]},"properties":{"group_id":"c84","n_det":71,"n_days":47,"span_days":88.0,"night_frac":0.423,"frp_mean":7.6,"frp_max":29.71,"persistence_score":0.92,"label":"INDUSTRIAL_FIRE","confidence":1.0,"nearest_site_name":"UltraTech Cement Awarpur","nearest_site_type":"cement_plant","dist_industrial_km":0.02,"landcover":"industrial","first_seen":"2025-03-02","last_seen":"2025-05-29","n_anomalies":1,"radius_m":958}},{"type":"Feature","geometry":{"type":"Point","coordinates":[76.79905,15.24204]},"properties":{"group_id":"c98","n_det":90,"n_days":54,"span_days":86.58,"night_frac":0.511,"frp_mean":10.41,"frp_max":44.77,"persistence_score":0.92,"label":"INDUSTRIAL_FIRE","confidence":1.0,"nearest_site_name":"JSW Vijayanagar Steel","nearest_site_type":"none","dist_industrial_km":11.901,"landcover":"industrial","first_seen":"2025-03-03","last_seen":"2025-05-29","n_anomalies":1,"radius_m":597}},{"type":"Feature","geometry":{"type":"Point","coordinates":[86.06509,23.03186]},"properties":{"group_id":"c81","n_det":92,"n_days":61,"span_days":87.52,"night_frac":0.543,"frp_mean":10.75,"frp_max":70.0,"persistence_score":0.92,"label":"INDUSTRIAL_FIRE","confidence":1.0,"nearest_site_name":"Tata Steel Jamshedpur","nearest_site_type":"none","dist_industrial_km":29.453,"landcover":"industrial","first_seen":"2025-03-02","last_seen":"2025-05-29","n_anomalies":1,"radius_m":566}},{"type":"Feature","geometry":{"type":"Point","coordinates":[85.29681,25.61778]},"properties":{"group_id":"c68","n_det":34,"n_days":34,"span_days":82.97,"night_frac":0.5,"frp_mean":4.1,"frp_max":10.77,"persistence_score":0.907,"label":"INDUSTRIAL_FIRE","confidence":1.0,"nearest_site_name":"Brick kiln","nearest_site_type":"brick_kiln","dist_industrial_km":6.28,"landcover":"cropland","first_seen":"2025-03-02","last_seen":"2025-05-24","n_anomalies":0,"radius_m":354}},{"type":"Feature","geometry":{"type":"Point","coordinates":[80.35693,26.30738]},"properties":{"group_id":"c24","n_det":29,"n_days":29,"span_days":89.0,"night_frac":0.345,"frp_mean":4.21,"frp_max":13.84,"persistence_score":0.907,"label":"INDUSTRIAL_FIRE","confidence":1.0,"nearest_site_name":"Brick kiln","nearest_site_type":"brick_kiln","dist_industrial_km":0.017,"landcover":"industrial","first_seen":"2025-03-01","last_seen":"2025-05-29","n_anomalies":1,"radius_m":400}},{"type":"Feature","geometry":{"type":"Point","coordinates":[80.62618,26.71792]},"properties":{"group_id":"c93","n_det":38,"n_days":38,"span_days":86.0,"night_frac":0.447,"frp_mean":3.81,"frp_max":10.74,"persistence_score":0.907,"label":"INDUSTRIAL_FIRE","confidence":1.0,"nearest_site_name":"Brick kiln","nearest_site_type":"none","dist_industrial_km":22.516,"landcover":"cropland","first_seen":"2025-03-03","last_seen":"2025-05-28","n_anomalies":2,"radius_m":319}},{"type":"Feature","geometry":{"type":"Point","coordinates":[74.33029,26.04924]},"properties":{"group_id":"c12","n_det":59,"n_days":40,"span_days":89.53,"night_frac":0.39,"frp_mean":8.09,"frp_max":18.29,"persistence_score":0.907,"label":"INDUSTRIAL_FIRE","confidence":1.0,"nearest_site_name":"Shree Cement Beawar","nearest_site_type":"cement_plant","dist_industrial_km":0.067,"landcover":"industrial","first_seen":"2025-03-01","last_seen":"2025-05-29","n_anomalies":0,"radius_m":765}},{"type":"Feature","geometry":{"type":"Point","coordinates":[76.91954,15.14851]},"properties":{"group_id":"c15","n_det":43,"n_days":30,"span_days":88.03,"night_frac":0.14,"frp_mean":6.83,"frp_max":21.06,"persistence_score":0.907,"label":"MINING_ACTIVITY","confidence":1.0,"nearest_site_name":"Bellary Iron Ore Quarries","nearest_site_type":"mine","dist_industrial_km":0.118,"landcover":"mining","first_seen":"2025-03-01","last_seen":"2025-05-28","n_anomalies":0,"radius_m":1531}},{"type":"Feature","geometry":{"type":"Point","coordinates":[80.32653,26.6973]},"properties":{"group_id":"c120","n_det":34,"n_days":34,"span_days":82.52,"night_frac":0.529,"frp_mean":3.59,"frp_max":8.61,"persistence_score":0.907,"label":"INDUSTRIAL_FIRE","confidence":1.0,"nearest_site_name":"Brick kiln","nearest_site_type":"brick_kiln","dist_industrial_km":0.057,"landcover":"industrial","first_seen":"2025-03-07","last_seen":"2025-05-28","n_anomalies":0,"radius_m":303}},{"type":"Feature","geometry":{"type":"Point","coordinates":[82.97379,25.27198]},"properties":{"group_id":"c110","n_det":37,"n_days":37,"span_days":84.03,"night_frac":0.378,"frp_mean":4.62,"frp_max":14.08,"persistence_score":0.907,"label":"INDUSTRIAL_FIRE","confidence":1.0,"nearest_site_name":"Brick kiln","nearest_site_type":"brick_kiln","dist_industrial_km":0.079,"landcover":"industrial","first_seen":"2025-03-05","last_seen":"2025-05-28","n_anomalies":1,"radius_m":339}},{"type":"Feature","geometry":{"type":"Point","coordinates":[82.8194,25.42736]},"properties":{"group_id":"c34","n_det":42,"n_days":42,"span_days":88.01,"night_frac":0.286,"frp_mean":4.0,"frp_max":8.83,"persistence_score":0.907,"label":"INDUSTRIAL_FIRE","confidence":1.0,"nearest_site_name":"Brick kiln","nearest_site_type":"none","dist_industrial_km":15.613,"landcover":"industrial","first_seen":"2025-03-01","last_seen":"2025-05-28","n_anomalies":0,"radius_m":325}},{"type":"Feature","geometry":{"type":"Point","coordinates":[82.83459,25.27867]},"properties":{"group_id":"c6","n_det":38,"n_days":38,"span_days":89.07,"night_frac":0.395,"frp_mean":4.1,"frp_max":8.6,"persistence_score":0.893,"label":"INDUSTRIAL_FIRE","confidence":1.0,"nearest_site_name":"Brick kiln","nearest_site_type":"brick_kiln","dist_industrial_km":0.036,"landcover":"industrial","first_seen":"2025-03-01","last_seen":"2025-05-29","n_anomalies":0,"radius_m":348}},{"type":"Feature","geometry":{"type":"Point","coordinates":[82.74968,25.12142]},"properties":{"group_id":"c92","n_det":30,"n_days":30,"span_days":85.59,"night_frac":0.467,"frp_mean":3.99,"frp_max":10.92,"persistence_score":0.893,"label":"INDUSTRIAL_FIRE","confidence":1.0,"nearest_site_name":"Brick kiln","nearest_site_type":"brick_kiln","dist_industrial_km":0.015,"landcover":"industrial","first_seen":"2025-03-03","last_seen":"2025-05-27","n_anomalies":1,"radius_m":366}},{"type":"Feature","geometry":{"type":"Point","coordinates":[85.37238,25.42388]},"properties":{"group_id":"c94","n_det":40,"n_days":40,"span_days":87.53,"night_frac":0.55,"frp_mean":3.76,"frp_max":9.52,"persistence_score":0.893,"label":"INDUSTRIAL_FIRE","confidence":1.0,"nearest_site_name":"Brick kiln","nearest_site_type":"brick_kiln","dist_industrial_km":8.028,"landcover":"cropland","first_seen":"2025-03-03","last_seen":"2025-05-29","n_anomalies":0,"radius_m":280}},{"type":"Feature","geometry":{"type":"Point","coordinates":[85.07071,25.72182]},"properties":{"group_id":"c127","n_det":26,"n_days":26,"span_days":75.48,"night_frac":0.462,"frp_mean":3.46,"frp_max":6.84,"persistence_score":0.893,"label":"INDUSTRIAL_FIRE","confidence":1.0,"nearest_site_name":"Brick kiln","nearest_site_type":"brick_kiln","dist_industrial_km":9.763,"landcover":"industrial","first_seen":"2025-03-09","last_seen":"2025-05-23","n_anomalies":0,"radius_m":361}},{"type":"Feature","geometry":{"type":"Point","coordinates":[82.81124,25.38496]},"properties":{"group_id":"c5","n_det":29,"n_days":29,"span_days":87.02,"night_frac":0.379,"frp_mean":3.31,"frp_max":5.61,"persistence_score":0.893,"label":"INDUSTRIAL_FIRE","confidence":1.0,"nearest_site_name":"Brick kiln","nearest_site_type":"none","dist_industrial_km":11.821,"landcover":"unknown","first_seen":"2025-03-01","last_seen":"2025-05-27","n_anomalies":0,"radius_m":348}},{"type":"Feature","geometry":{"type":"Point","coordinates":[82.99424,25.46652]},"properties":{"group_id":"c7","n_det":33,"n_days":33,"span_days":85.52,"night_frac":0.303,"frp_mean":3.8,"frp_max":6.79,"persistence_score":0.893,"label":"INDUSTRIAL_FIRE","confidence":1.0,"nearest_site_name":"Brick kiln","nearest_site_type":"brick_kiln","dist_industrial_km":3.364,"landcover":"industrial","first_seen":"2025-03-01","last_seen":"2025-05-25","n_anomalies":0,"radius_m":357}},{"type":"Feature","geometry":{"type":"Point","coordinates":[85.10957,25.67792]},"properties":{"group_id":"c73","n_det":32,"n_days":32,"span_days":88.52,"night_frac":0.406,"frp_mean":3.84,"frp_max":11.32,"persistence_score":0.893,"label":"INDUSTRIAL_FIRE","confidence":1.0,"nearest_site_name":"Brick kiln","nearest_site_type":"none","dist_industrial_km":11.213,"landcover":"industrial","first_seen":"2025-03-02","last_seen":"2025-05-29","n_anomalies":1,"radius_m":323}},{"type":"Feature","geometry":{"type":"Point","coordinates":[82.95738,25.30807]},"properties":{"group_id":"c50","n_det":33,"n_days":33,"span_days":86.5,"night_frac":0.515,"frp_mean":3.93,"frp_max":8.11,"persistence_score":0.88,"label":"INDUSTRIAL_FIRE","confidence":1.0,"nearest_site_name":"Brick kiln","nearest_site_type":"brick_kiln","dist_industrial_km":4.029,"landcover":"cropland","first_seen":"2025-03-01","last_seen":"2025-05-27","n_anomalies":0,"radius_m":267}},{"type":"Feature","geometry":{"type":"Point","coordinates":[80.61163,26.34399]},"properties":{"group_id":"c31","n_det":34,"n_days":34,"span_days":86.49,"night_frac":0.382,"frp_mean":3.36,"frp_max":11.43,"persistence_score":0.88,"label":"INDUSTRIAL_FIRE","confidence":1.0,"nearest_site_name":"Brick kiln","nearest_site_type":"none","dist_industrial_km":13.969,"landcover":"industrial","first_seen":"2025-03-01","last_seen":"2025-05-26","n_anomalies":1,"radius_m":369}},{"type":"Feature","geometry":{"type":"Point","coordinates":[85.39529,25.52356]},"properties":{"group_id":"c80","n_det":34,"n_days":34,"span_days":87.57,"night_frac":0.529,"frp_mean":4.84,"frp_max":13.91,"persistence_score":0.88,"label":"INDUSTRIAL_FIRE","confidence":1.0,"nearest_site_name":"Brick kiln","nearest_site_type":"brick_kiln","dist_industrial_km":0.027,"landcover":"industrial","first_seen":"2025-03-02","last_seen":"2025-05-29","n_anomalies":1,"radius_m":368}},{"type":"Feature","geometry":{"type":"Point","coordinates":[80.18745,26.41107]},"properties":{"group_id":"c99","n_det":31,"n_days":31,"span_days":87.02,"night_frac":0.419,"frp_mean":4.01,"frp_max":12.05,"persistence_score":0.88,"label":"INDUSTRIAL_FIRE","confidence":1.0,"nearest_site_name":"Brick kiln","nearest_site_type":"none","dist_industrial_km":10.506,"landcover":"cropland","first_seen":"2025-03-03","last_seen":"2025-05-29","n_anomalies":1,"radius_m":326}},{"type":"Feature","geometry":{"type":"Point","coordinates":[80.61965,26.44347]},"properties":{"group_id":"c57","n_det":32,"n_days":32,"span_days":88.93,"night_frac":0.438,"frp_mean":4.08,"frp_max":11.62,"persistence_score":0.88,"label":"INDUSTRIAL_FIRE","confidence":1.0,"nearest_site_name":"Brick kiln","nearest_site_type":"none","dist_industrial_km":10.229,"landcover":"industrial","first_seen":"2025-03-01","last_seen":"2025-05-29","n_anomalies":1,"radius_m":315}},{"type":"Feature","geometry":{"type":"Point","coordinates":[80.2665,26.34423]},"properties":{"group_id":"c107","n_det":31,"n_days":31,"span_days":84.01,"night_frac":0.258,"frp_mean":4.69,"frp_max":11.92,"persistence_score":0.867,"label":"INDUSTRIAL_FIRE","confidence":1.0,"nearest_site_name":"Brick kiln","nearest_site_type":"brick_kiln","dist_industrial_km":0.031,"landcover":"unknown","first_seen":"2025-03-04","last_seen":"2025-05-27","n_anomalies":0,"radius_m":428}},{"type":"Feature","geometry":{"type":"Point","coordinates":[80.3333,26.34357]},"properties":{"group_id":"c69","n_det":31,"n_days":31,"span_days":88.01,"night_frac":0.323,"frp_mean":4.45,"frp_max":13.65,"persistence_score":0.867,"label":"INDUSTRIAL_FIRE","confidence":1.0,"nearest_site_name":"Brick kiln","nearest_site_type":"brick_kiln","dist_industrial_km":4.322,"landcover":"industrial","first_seen":"2025-03-02","last_seen":"2025-05-29","n_anomalies":1,"radius_m":332}},{"type":"Feature","geometry":{"type":"Point","coordinates":[80.17086,26.64444]},"properties":{"group_id":"c115","n_det":29,"n_days":29,"span_days":84.48,"night_frac":0.448,"frp_mean":3.93,"frp_max":6.61,"persistence_score":0.867,"label":"INDUSTRIAL_FIRE","confidence":1.0,"nearest_site_name":"Brick kiln","nearest_site_type":"brick_kiln","dist_industrial_km":6.975,"landcover":"industrial","first_seen":"2025-03-06","last_seen":"2025-05-29","n_anomalies":0,"radius_m":329}},{"type":"Feature","geometry":{"type":"Point","coordinates":[85.35539,25.6462]},"properties":{"group_id":"c108","n_det":26,"n_days":26,"span_days":80.98,"night_frac":0.269,"frp_mean":3.93,"frp_max":10.14,"persistence_score":0.867,"label":"INDUSTRIAL_FIRE","confidence":1.0,"nearest_site_name":"Brick kiln","nearest_site_type":"brick_kiln","dist_industrial_km":0.012,"landcover":"industrial","first_seen":"2025-03-04","last_seen":"2025-05-24","n_anomalies":0,"radius_m":321}},{"type":"Feature","geometry":{"type":"Point","coordinates":[82.90902,25.484]},"properties":{"group_id":"c17","n_det":29,"n_days":29,"span_days":87.02,"night_frac":0.345,"frp_mean":4.17,"frp_max":8.32,"persistence_score":0.867,"label":"INDUSTRIAL_FIRE","confidence":1.0,"nearest_site_name":"Brick kiln","nearest_site_type":"brick_kiln","dist_industrial_km":8.448,"landcover":"cropland","first_seen":"2025-03-01","last_seen":"2025-05-27","n_anomalies":0,"radius_m":322}},{"type":"Feature","geometry":{"type":"Point","coordinates":[80.22076,26.49679]},"properties":{"group_id":"c8","n_det":28,"n_days":28,"span_days":89.54,"night_frac":0.179,"frp_mean":3.82,"frp_max":8.24,"persistence_score":0.867,"label":"INDUSTRIAL_FIRE","confidence":1.0,"nearest_site_name":"Brick kiln","nearest_site_type":"brick_kiln","dist_industrial_km":6.919,"landcover":"industrial","first_seen":"2025-03-01","last_seen":"2025-05-29","n_anomalies":0,"radius_m":378}},{"type":"Feature","geometry":{"type":"Point","coordinates":[85.44902,25.77905]},"properties":{"group_id":"c67","n_det":31,"n_days":31,"span_days":87.02,"night_frac":0.194,"frp_mean":4.27,"frp_max":15.78,"persistence_score":0.867,"label":"INDUSTRIAL_FIRE","confidence":1.0,"nearest_site_name":"Brick kiln","nearest_site_type":"none","dist_industrial_km":17.159,"landcover":"cropland","first_seen":"2025-03-02","last_seen":"2025-05-28","n_anomalies":1,"radius_m":355}},{"type":"Feature","geometry":{"type":"Point","coordinates":[85.19082,25.60506]},"properties":{"group_id":"c38","n_det":30,"n_days":30,"span_days":77.52,"night_frac":0.433,"frp_mean":3.65,"frp_max":10.13,"persistence_score":0.867,"label":"INDUSTRIAL_FIRE","confidence":1.0,"nearest_site_name":"Brick kiln","nearest_site_type":"brick_kiln","dist_industrial_km":0.048,"landcover":"cropland","first_seen":"2025-03-01","last_seen":"2025-05-18","n_anomalies":1,"radius_m":376}},{"type":"Feature","geometry":{"type":"Point","coordinates":[85.31067,25.57913]},"properties":{"group_id":"c91","n_det":35,"n_days":35,"span_days":87.99,"night_frac":0.4,"frp_mean":4.11,"frp_max":11.94,"persistence_score":0.867,"label":"INDUSTRIAL_FIRE","confidence":1.0,"nearest_site_name":"Brick kiln","nearest_site_type":"brick_kiln","dist_industrial_km":8.319,"landcover":"cropland","first_seen":"2025-03-02","last_seen":"2025-05-29","n_anomalies":1,"radius_m":299}},{"type":"Feature","geometry":{"type":"Point","coordinates":[85.02292,25.63248]},"properties":{"group_id":"c70","n_det":29,"n_days":29,"span_days":87.03,"night_frac":0.379,"frp_mean":4.13,"frp_max":10.07,"persistence_score":0.853,"label":"INDUSTRIAL_FIRE","confidence":1.0,"nearest_site_name":"Brick kiln","nearest_site_type":"none","dist_industrial_km":14.609,"landcover":"industrial","first_seen":"2025-03-02","last_seen":"2025-05-28","n_anomalies":0,"radius_m":361}},{"type":"Feature","geometry":{"type":"Point","coordinates":[80.34509,26.67139]},"properties":{"group_id":"c96","n_det":24,"n_days":24,"span_days":80.94,"night_frac":0.292,"frp_mean":4.54,"frp_max":9.52,"persistence_score":0.853,"label":"INDUSTRIAL_FIRE","confidence":1.0,"nearest_site_name":"Brick kiln","nearest_site_type":"brick_kiln","dist_industrial_km":3.036,"landcover":"industrial","first_seen":"2025-03-03","last_seen":"2025-05-23","n_anomalies":0,"radius_m":362}},{"type":"Feature","geometry":{"type":"Point","coordinates":[82.97195,25.48184]},"properties":{"group_id":"c87","n_det":24,"n_days":24,"span_days":87.46,"night_frac":0.25,"frp_mean":4.8,"frp_max":15.82,"persistence_score":0.853,"label":"INDUSTRIAL_FIRE","confidence":1.0,"nearest_site_name":"Brick kiln","nearest_site_type":"brick_kiln","dist_industrial_km":4.931,"landcover":"unknown","first_seen":"2025-03-02","last_seen":"2025-05-29","n_anomalies":1,"radius_m":301}},{"type":"Feature","geometry":{"type":"Point","coordinates":[80.21438,26.59201]},"properties":{"group_id":"c77","n_det":36,"n_days":36,"span_days":88.48,"night_frac":0.444,"frp_mean":4.52,"frp_max":11.6,"persistence_score":0.853,"label":"INDUSTRIAL_FIRE","confidence":1.0,"nearest_site_name":"Brick kiln","nearest_site_type":"brick_kiln","dist_industrial_km":0.03,"landcover":"industrial","first_seen":"2025-03-02","last_seen":"2025-05-29","n_anomalies":1,"radius_m":388}},{"type":"Feature","geometry":{"type":"Point","coordinates":[85.58131,21.62926]},"properties":{"group_id":"c116","n_det":31,"n_days":24,"span_days":81.93,"night_frac":0.097,"frp_mean":4.96,"frp_max":19.26,"persistence_score":0.853,"label":"MINING_ACTIVITY","confidence":1.0,"nearest_site_name":"Keonjhar Iron Ore Mines","nearest_site_type":"mine","dist_industrial_km":0.082,"landcover":"mining","first_seen":"2025-03-06","last_seen":"2025-05-27","n_anomalies":1,"radius_m":1535}},{"type":"Feature","geometry":{"type":"Point","coordinates":[80.56296,26.48049]},"properties":{"group_id":"c25","n_det":34,"n_days":34,"span_days":88.02,"night_frac":0.529,"frp_mean":3.2,"frp_max":6.56,"persistence_score":0.853,"label":"INDUSTRIAL_FIRE","confidence":1.0,"nearest_site_name":"Brick kiln","nearest_site_type":"brick_kiln","dist_industrial_km":4.025,"landcover":"industrial","first_seen":"2025-03-01","last_seen":"2025-05-28","n_anomalies":0,"radius_m":335}},{"type":"Feature","geometry":{"type":"Point","coordinates":[82.97809,25.43477]},"properties":{"group_id":"c112","n_det":33,"n_days":33,"span_days":78.52,"night_frac":0.364,"frp_mean":3.93,"frp_max":13.78,"persistence_score":0.853,"label":"INDUSTRIAL_FIRE","confidence":1.0,"nearest_site_name":"Brick kiln","nearest_site_type":"brick_kiln","dist_industrial_km":0.036,"landcover":"industrial","first_seen":"2025-03-05","last_seen":"2025-05-23","n_anomalies":1,"radius_m":358}},{"type":"Feature","geometry":{"type":"Point","coordinates":[80.63751,26.53696]},"properties":{"group_id":"c100","n_det":24,"n_days":24,"span_days":86.55,"night_frac":0.375,"frp_mean":4.63,"frp_max":9.76,"persistence_score":0.853,"label":"INDUSTRIAL_FIRE","confidence":1.0,"nearest_site_name":"Brick kiln","nearest_site_type":"brick_kiln","dist_industrial_km":7.703,"landcover":"unknown","first_seen":"2025-03-03","last_seen":"2025-05-29","n_anomalies":0,"radius_m":395}},{"type":"Feature","geometry":{"type":"Point","coordinates":[85.37721,25.4996]},"properties":{"group_id":"c121","n_det":25,"n_days":25,"span_days":81.48,"night_frac":0.48,"frp_mean":5.05,"frp_max":15.41,"persistence_score":0.853,"label":"INDUSTRIAL_FIRE","confidence":1.0,"nearest_site_name":"Brick kiln","nearest_site_type":"brick_kiln","dist_industrial_km":0.046,"landcover":"industrial","first_seen":"2025-03-07","last_seen":"2025-05-28","n_anomalies":1,"radius_m":286}},{"type":"Feature","geometry":{"type":"Point","coordinates":[85.00293,25.56934]},"properties":{"group_id":"c89","n_det":34,"n_days":34,"span_days":86.4,"night_frac":0.412,"frp_mean":3.93,"frp_max":7.5,"persistence_score":0.853,"label":"INDUSTRIAL_FIRE","confidence":1.0,"nearest_site_name":"Brick kiln","nearest_site_type":"none","dist_industrial_km":18.923,"landcover":"unknown","first_seen":"2025-03-02","last_seen":"2025-05-28","n_anomalies":0,"radius_m":336}},{"type":"Feature","geometry":{"type":"Point","coordinates":[80.50118,26.63171]},"properties":{"group_id":"c105","n_det":31,"n_days":31,"span_days":79.04,"night_frac":0.29,"frp_mean":4.46,"frp_max":12.95,"persistence_score":0.84,"label":"INDUSTRIAL_FIRE","confidence":1.0,"nearest_site_name":"Brick kiln","nearest_site_type":"none","dist_industrial_km":13.392,"landcover":"industrial","first_seen":"2025-03-04","last_seen":"2025-05-22","n_anomalies":0,"radius_m":301}},{"type":"Feature","geometry":{"type":"Point","coordinates":[80.20223,26.56024]},"properties":{"group_id":"c16","n_det":29,"n_days":29,"span_days":89.01,"night_frac":0.414,"frp_mean":4.16,"frp_max":9.71,"persistence_score":0.84,"label":"INDUSTRIAL_FIRE","confidence":1.0,"nearest_site_name":"Brick kiln","nearest_site_type":"brick_kiln","dist_industrial_km":0.082,"landcover":"cropland","first_seen":"2025-03-01","last_seen":"2025-05-29","n_anomalies":0,"radius_m":348}},{"type":"Feature","geometry":{"type":"Point","coordinates":[83.06971,25.17055]},"properties":{"group_id":"c90","n_det":29,"n_days":29,"span_days":81.91,"night_frac":0.379,"frp_mean":3.86,"frp_max":8.45,"persistence_score":0.84,"label":"INDUSTRIAL_FIRE","confidence":1.0,"nearest_site_name":"Brick kiln","nearest_site_type":"brick_kiln","dist_industrial_km":0.008,"landcover":"cropland","first_seen":"2025-03-02","last_seen":"2025-05-23","n_anomalies":0,"radius_m":377}},{"type":"Feature","geometry":{"type":"Point","coordinates":[80.29116,26.30447]},"properties":{"group_id":"c66","n_det":26,"n_days":26,"span_days":86.57,"night_frac":0.346,"frp_mean":4.3,"frp_max":13.09,"persistence_score":0.84,"label":"INDUSTRIAL_FIRE","confidence":1.0,"nearest_site_name":"Brick kiln","nearest_site_type":"brick_kiln","dist_industrial_km":0.068,"landcover":"unknown","first_seen":"2025-03-02","last_seen":"2025-05-27","n_anomalies":1,"radius_m":386}},{"type":"Feature","geometry":{"type":"Point","coordinates":[80.42797,26.44375]},"properties":{"group_id":"c61","n_det":30,"n_days":30,"span_days":87.0,"night_frac":0.333,"frp_mean":3.75,"frp_max":7.12,"persistence_score":0.84,"label":"INDUSTRIAL_FIRE","confidence":1.0,"nearest_site_name":"Brick kiln","nearest_site_type":"brick_kiln","dist_industrial_km":7.06,"landcover":"unknown","first_seen":"2025-03-02","last_seen":"2025-05-28","n_anomalies":0,"radius_m":287}},{"type":"Feature","geometry":{"type":"Point","coordinates":[85.05534,25.30966]},"properties":{"group_id":"c26","n_det":27,"n_days":27,"span_days":88.96,"night_frac":0.444,"frp_mean":4.14,"frp_max":7.09,"persistence_score":0.84,"label":"INDUSTRIAL_FIRE","confidence":1.0,"nearest_site_name":"Brick kiln","nearest_site_type":"brick_kiln","dist_industrial_km":0.033,"landcover":"unknown","first_seen":"2025-03-01","last_seen":"2025-05-29","n_anomalies":0,"radius_m":390}},{"type":"Feature","geometry":{"type":"Point","coordinates":[84.98143,25.76182]},"properties":{"group_id":"c123","n_det":30,"n_days":30,"span_days":82.0,"night_frac":0.4,"frp_mean":3.56,"frp_max":7.57,"persistence_score":0.84,"label":"INDUSTRIAL_FIRE","confidence":1.0,"nearest_site_name":"Brick kiln","nearest_site_type":"brick_kiln","dist_industrial_km":0.059,"landcover":"industrial","first_seen":"2025-03-08","last_seen":"2025-05-29","n_anomalies":0,"radius_m":432}},{"type":"Feature","geometry":{"type":"Point","coordinates":[80.49911,26.42426]},"properties":{"group_id":"c103","n_det":39,"n_days":39,"span_days":84.98,"night_frac":0.436,"frp_mean":4.06,"frp_max":9.82,"persistence_score":0.84,"label":"INDUSTRIAL_FIRE","confidence":1.0,"nearest_site_name":"Brick kiln","nearest_site_type":"brick_kiln","dist_industrial_km":0.024,"landcover":"cropland","first_seen":"2025-03-03","last_seen":"2025-05-27","n_anomalies":0,"radius_m":392}},{"type":"Feature","geometry":{"type":"Point","coordinates":[80.48161,26.53757]},"properties":{"group_id":"c59","n_det":31,"n_days":31,"span_days":88.39,"night_frac":0.581,"frp_mean":4.76,"frp_max":18.15,"persistence_score":0.84,"label":"INDUSTRIAL_FIRE","confidence":1.0,"nearest_site_name":"Brick kiln","nearest_site_type":"brick_kiln","dist_industrial_km":7.595,"landcover":"industrial","first_seen":"2025-03-01","last_seen":"2025-05-29","n_anomalies":1,"radius_m":299}},{"type":"Feature","geometry":{"type":"Point","coordinates":[82.77062,25.19518]},"properties":{"group_id":"c63","n_det":29,"n_days":29,"span_days":88.55,"night_frac":0.483,"frp_mean":4.5,"frp_max":10.92,"persistence_score":0.84,"label":"INDUSTRIAL_FIRE","confidence":1.0,"nearest_site_name":"Brick kiln","nearest_site_type":"brick_kiln","dist_industrial_km":8.163,"landcover":"industrial","first_seen":"2025-03-02","last_seen":"2025-05-29","n_anomalies":0,"radius_m":324}},{"type":"Feature","geometry":{"type":"Point","coordinates":[85.14008,25.66953]},"properties":{"group_id":"c97","n_det":24,"n_days":24,"span_days":84.98,"night_frac":0.458,"frp_mean":3.35,"frp_max":8.86,"persistence_score":0.84,"label":"INDUSTRIAL_FIRE","confidence":1.0,"nearest_site_name":"Brick kiln","nearest_site_type":"brick_kiln","dist_industrial_km":8.466,"landcover":"cropland","first_seen":"2025-03-03","last_seen":"2025-05-27","n_anomalies":1,"radius_m":295}},{"type":"Feature","geometry":{"type":"Point","coordinates":[80.22753,26.76025]},"properties":{"group_id":"c83","n_det":35,"n_days":35,"span_days":83.48,"night_frac":0.343,"frp_mean":3.41,"frp_max":9.23,"persistence_score":0.84,"label":"INDUSTRIAL_FIRE","confidence":1.0,"nearest_site_name":"Brick kiln","nearest_site_type":"brick_kiln","dist_industrial_km":0.074,"landcover":"unknown","first_seen":"2025-03-02","last_seen":"2025-05-25","n_anomalies":1,"radius_m":345}},{"type":"Feature","geometry":{"type":"Point","coordinates":[80.48149,26.62302]},"properties":{"group_id":"c78","n_det":27,"n_days":27,"span_days":87.97,"night_frac":0.481,"frp_mean":4.46,"frp_max":8.42,"persistence_score":0.84,"label":"INDUSTRIAL_FIRE","confidence":1.0,"nearest_site_name":"Brick kiln","nearest_site_type":"none","dist_industrial_km":13.506,"landcover":"industrial","first_seen":"2025-03-02","last_seen":"2025-05-29","n_anomalies":0,"radius_m":336}},{"type":"Feature","geometry":{"type":"Point","coordinates":[85.00269,25.48464]},"properties":{"group_id":"c124","n_det":29,"n_days":29,"span_days":81.53,"night_frac":0.31,"frp_mean":3.7,"frp_max":7.53,"persistence_score":0.827,"label":"INDUSTRIAL_FIRE","confidence":1.0,"nearest_site_name":"Brick kiln","nearest_site_type":"none","dist_industrial_km":19.661,"landcover":"cropland","first_seen":"2025-03-08","last_seen":"2025-05-29","n_anomalies":0,"radius_m":348}},{"type":"Feature","geometry":{"type":"Point","coordinates":[85.44631,25.56639]},"properties":{"group_id":"c82","n_det":36,"n_days":36,"span_days":87.97,"night_frac":0.417,"frp_mean":3.82,"frp_max":8.25,"persistence_score":0.813,"label":"INDUSTRIAL_FIRE","confidence":1.0,"nearest_site_name":"Brick kiln","nearest_site_type":"brick_kiln","dist_industrial_km":0.013,"landcover":"unknown","first_seen":"2025-03-02","last_seen":"2025-05-29","n_anomalies":0,"radius_m":359}},{"type":"Feature","geometry":{"type":"Point","coordinates":[82.89615,25.46734]},"properties":{"group_id":"c102","n_det":27,"n_days":27,"span_days":85.98,"night_frac":0.444,"frp_mean":3.26,"frp_max":6.4,"persistence_score":0.8,"label":"INDUSTRIAL_FIRE","confidence":1.0,"nearest_site_name":"Brick kiln","nearest_site_type":"brick_kiln","dist_industrial_km":8.563,"landcover":"industrial","first_seen":"2025-03-03","last_seen":"2025-05-28","n_anomalies":0,"radius_m":404}},{"type":"Feature","geometry":{"type":"Point","coordinates":[80.57567,26.39644]},"properties":{"group_id":"c58","n_det":28,"n_days":28,"span_days":86.47,"night_frac":0.5,"frp_mean":3.82,"frp_max":8.17,"persistence_score":0.8,"label":"INDUSTRIAL_FIRE","confidence":1.0,"nearest_site_name":"Brick kiln","nearest_site_type":"brick_kiln","dist_industrial_km":7.954,"landcover":"industrial","first_seen":"2025-03-01","last_seen":"2025-05-27","n_anomalies":0,"radius_m":343}},{"type":"Feature","geometry":{"type":"Point","coordinates":[93.6528,23.22694]},"properties":{"group_id":"c161","n_det":59,"n_days":8,"span_days":45.54,"night_frac":0.237,"frp_mean":43.88,"frp_max":187.69,"persistence_score":0.53,"label":"WILDFIRE","confidence":0.9,"nearest_site_name":"Duliajan Oil Field, Assam \u2013 flare 2","nearest_site_type":"none","dist_industrial_km":482.473,"landcover":"shrub_grass","first_seen":"2025-03-26","last_seen":"2025-05-11","n_anomalies":2,"radius_m":2384}}]}